STARLINK-31384          
1 58983U 24031U   26068.91059101  .00000787  00000+0  38705-4 0  9999
2 58983  53.1604 295.9060 0001128  82.7914 277.3215 15.30184012116547
XCUBE-1                 
1 62400U 24247Z   26068.48297321  .00009773  00000+0  36224-3 0  9994
2 62400  44.9938 117.7807 0005235 331.1499  28.9094 15.27910558 67702
